start=new Date('2022-01-13T00:00:00.000Z').valueOf();
sats=[{"REV_AT_EPOCH":"4404","PERIOD":"95.592","REF_FRAME":"TEME","MEAN_MOTION":"15.06400384","FILE":"3270709","OBJECT_ID":"2021-027BL","EPOCH":"2022-01-12T14:33:54.772416","PERIAPSIS":"545.909","MEAN_MOTION_DDOT":"0.0000000000000","MEAN_ANOMALY":"249.8512","LAUNCH_DATE":"2021-04-07","BSTAR":"0.00004103300000","MEAN_ELEMENT_THEORY":"SGP4","SITE":"AFETR","TLE_LINE2":"2 48150  53.0574 122.0747 0001882 110.2679 249.8512 15.06400384 44046","SEMIMAJOR_AXIS":"6925.347","TIME_SYSTEM":"UTC","CENTER_NAME":"EARTH","ARG_OF_PERICENTER":"110.2679","TLE_LINE1":"1 48150U 21027BL  22012.60688394  .00000330  00000-0  41033-4 0  9992","DECAY_DATE":null,"RCS_SIZE":"LARGE","CLASSIFICATION_TYPE":"U","ELEMENT_SET_NO":"999","RA_OF_ASC_NODE":"122.0747","COUNTRY_CODE":"US","INCLINATION":"53.0574","MEAN_MOTION_DOT":"0.00000330","OBJECT_TYPE":"PAYLOAD","NORAD_CAT_ID":"48150","OBJECT_NAME":"STARLINK-2493","EPHEMERIS_TYPE":"0","ECCENTRICITY":"0.00018820","GP_ID":"193733494","APOAPSIS":"548.516"},{"MEAN_ANOMALY":"264.8195","MEAN_MOTION_DDOT":"0.0000000000000","SITE":"AFETR","MEAN_ELEMENT_THEORY":"SGP4","BSTAR":"0.00002152300000","LAUNCH_DATE":"2021-04-07","MEAN_MOTION":"15.06393985","REF_FRAME":"TEME","PERIOD":"95.593","REV_AT_EPOCH":"4363","PERIAPSIS":"546.366","EPOCH":"2022-01-12T13:03:41.230944","OBJECT_ID":"2021-027BM","FILE":"3270499","ELEMENT_SET_NO":"999","CLASSIFICATION_TYPE":"U","RCS_SIZE":"LARGE","APOAPSIS":"548.098","ECCENTRICITY":"0.00012510","GP_ID":"193707330","OBJECT_NAME":"STARLINK-2503","OBJECT_TYPE":"PAYLOAD","EPHEMERIS_TYPE":"0","NORAD_CAT_ID":"48151","MEAN_MOTION_DOT":"0.00000039","INCLINATION":"53.0558","COUNTRY_CODE":"US","RA_OF_ASC_NODE":"122.3526","TIME_SYSTEM":"UTC","SEMIMAJOR_AXIS":"6925.367","TLE_LINE2":"2 48151  53.0558 122.3526 0001251  95.2937 264.8195 15.06393985 43632","DECAY_DATE":null,"TLE_LINE1":"1 48151U 21027BM  22012.54422721  .00000039  00000-0  21523-4 0  9994","ARG_OF_PERICENTER":"95.2937","CENTER_NAME":"EARTH"},{"FILE":"3270354","OBJECT_ID":"2021-036A","EPOCH":"2022-01-12T14:00:01.000224","PERIAPSIS":"546.145","REV_AT_EPOCH":"4072","REF_FRAME":"TEME","PERIOD":"95.592","MEAN_MOTION":"15.06394420","LAUNCH_DATE":"2021-04-29","MEAN_ELEMENT_THEORY":"SGP4","BSTAR":"-0.00116820000000","SITE":"AFETR","MEAN_MOTION_DDOT":"0.0000000000000","MEAN_ANOMALY":"285.0238","CENTER_NAME":"EARTH","ARG_OF_PERICENTER":"64.8397","DECAY_DATE":null,"TLE_LINE1":"1 48276U 21036A   22012.58334491 -.00017637  00000-0 -11682-2 0  9999","TLE_LINE2":"2 48276  53.0558  17.1663 0001568  64.8397 285.0238 15.06394420 40721","SEMIMAJOR_AXIS":"6925.366","TIME_SYSTEM":"UTC","RA_OF_ASC_NODE":"17.1663","COUNTRY_CODE":"US","OBJECT_TYPE":"PAYLOAD","OBJECT_NAME":"STARLINK-2567","NORAD_CAT_ID":"48276","EPHEMERIS_TYPE":"0","INCLINATION":"53.0558","MEAN_MOTION_DOT":"-0.00017637","APOAPSIS":"548.317","GP_ID":"193703891","ECCENTRICITY":"0.00015680","RCS_SIZE":"LARGE","CLASSIFICATION_TYPE":"U","ELEMENT_SET_NO":"999"},{"SEMIMAJOR_AXIS":"6925.316","TIME_SYSTEM":"UTC","TLE_LINE2":"2 48277  53.0532 342.1551 0002491  53.6199 288.7284 15.06410633  3593","DECAY_DATE":null,"TLE_LINE1":"1 48277U 21036B   22012.58334491 -.00031931  00000-0 -21336-2 0  9990","ARG_OF_PERICENTER":"53.6199","CENTER_NAME":"EARTH","ELEMENT_SET_NO":"999","CLASSIFICATION_TYPE":"U","RCS_SIZE":"LARGE","GP_ID":"193734510","ECCENTRICITY":"0.00024910","APOAPSIS":"548.906","MEAN_MOTION_DOT":"-0.00031931","INCLINATION":"53.0532","NORAD_CAT_ID":"48277","OBJECT_TYPE":"PAYLOAD","OBJECT_NAME":"STARLINK-2569","EPHEMERIS_TYPE":"0","COUNTRY_CODE":"US","RA_OF_ASC_NODE":"342.1551","MEAN_MOTION":"15.06410633","PERIOD":"95.591","REF_FRAME":"TEME","REV_AT_EPOCH":"359","PERIAPSIS":"545.456","EPOCH":"2022-01-12T14:00:01.000224","OBJECT_ID":"2021-036B","FILE":"3270709","MEAN_ANOMALY":"288.7284","MEAN_MOTION_DDOT":"0.0000000000000","SITE":"AFETR","BSTAR":"-0.00213360000000","MEAN_ELEMENT_THEORY":"SGP4","LAUNCH_DATE":"2021-04-29"},{"TLE_LINE2":"2 48278  53.0553 357.1841 0001935  51.5423 143.7211 15.05587196  3604","SEMIMAJOR_AXIS":"6927.841","TIME_SYSTEM":"UTC","CENTER_NAME":"EARTH","ARG_OF_PERICENTER":"51.5423","TLE_LINE1":"1 48278U 21036C   22012.58334491 -.00028316  00000-0 -19316-2 0  9999","DECAY_DATE":null,"RCS_SIZE":"LARGE","CLASSIFICATION_TYPE":"U","ELEMENT_SET_NO":"999","RA_OF_ASC_NODE":"357.1841","COUNTRY_CODE":"US","EPHEMERIS_TYPE":"0","OBJECT_TYPE":"PAYLOAD","NORAD_CAT_ID":"48278","OBJECT_NAME":"STARLINK-2543","INCLINATION":"53.0553","MEAN_MOTION_DOT":"-0.00028316","APOAPSIS":"551.046","GP_ID":"193733756","ECCENTRICITY":"0.00019350","REV_AT_EPOCH":"360","REF_FRAME":"TEME","PERIOD":"95.644","MEAN_MOTION":"15.05587196","FILE":"3270709","OBJECT_ID":"2021-036C","EPOCH":"2022-01-12T14:00:01.000224","PERIAPSIS":"548.365","MEAN_MOTION_DDOT":"0.0000000000000","MEAN_ANOMALY":"143.7211","LAUNCH_DATE":"2021-04-29","MEAN_ELEMENT_THEORY":"SGP4","BSTAR":"-0.00193160000000","SITE":"AFETR"},{"COUNTRY_CODE":"US","RA_OF_ASC_NODE":"357.1695","APOAPSIS":"548.592","ECCENTRICITY":"0.00019990","GP_ID":"193734008","OBJECT_TYPE":"PAYLOAD","NORAD_CAT_ID":"48279","EPHEMERIS_TYPE":"0","OBJECT_NAME":"STARLINK-2580","MEAN_MOTION_DOT":"-0.00027632","INCLINATION":"53.0562","CLASSIFICATION_TYPE":"U","RCS_SIZE":"LARGE","ELEMENT_SET_NO":"999","ARG_OF_PERICENTER":"50.0881","CENTER_NAME":"EARTH","TLE_LINE1":"1 48279U 21036D   22012.58334491 -.00027632  00000-0 -18432-2 0  9998","DECAY_DATE":null,"TLE_LINE2":"2 48279  53.0562 357.1695 0001999  50.0881 129.7680 15.06401891  3606","TIME_SYSTEM":"UTC","SEMIMAJOR_AXIS":"6925.343","LAUNCH_DATE":"2021-04-29","SITE":"AFETR","MEAN_ELEMENT_THEORY":"SGP4","BSTAR":"-0.00184320000000","MEAN_MOTION_DDOT":"0.0000000000000","MEAN_ANOMALY":"129.7680","OBJECT_ID":"2021-036D","FILE":"3270709","PERIAPSIS":"545.823","EPOCH":"2022-01-12T14:00:01.000224","REV_AT_EPOCH":"360","MEAN_MOTION":"15.06401891","REF_FRAME":"TEME","PERIOD":"95.592"},{"RA_OF_ASC_NODE":"67.6370","COUNTRY_CODE":"US","OBJECT_TYPE":"PAYLOAD","OBJECT_NAME":"STARLINK-2565","EPHEMERIS_TYPE":"0","NORAD_CAT_ID":"48280","MEAN_MOTION_DOT":"-0.00000720","INCLINATION":"53.0559","APOAPSIS":"548.256","GP_ID":"193734260","ECCENTRICITY":"0.00014970","RCS_SIZE":"LARGE","CLASSIFICATION_TYPE":"U","ELEMENT_SET_NO":"999","CENTER_NAME":"EARTH","ARG_OF_PERICENTER":"82.6317","DECAY_DATE":null,"TLE_LINE1":"1 48280U 21036E   22012.47741903 -.00000720  00000-0 -29441-4 0  9991","TLE_LINE2":"2 48280  53.0559  67.6370 0001497  82.6317 277.4842 15.06398019 39422","TIME_SYSTEM":"UTC","SEMIMAJOR_AXIS":"6925.355","LAUNCH_DATE":"2021-04-29","MEAN_ELEMENT_THEORY":"SGP4","BSTAR":"-0.00002944100000","SITE":"AFETR","MEAN_MOTION_DDOT":"0.0000000000000","MEAN_ANOMALY":"277.4842","FILE":"3270709","OBJECT_ID":"2021-036E","EPOCH":"2022-01-12T11:27:29.004192","PERIAPSIS":"546.183","REV_AT_EPOCH":"3942","REF_FRAME":"TEME","PERIOD":"95.592","MEAN_MOTION":"15.06398019"},{"REV_AT_EPOCH":"3970","MEAN_MOTION":"15.06391593","REF_FRAME":"TEME","PERIOD":"95.593","OBJECT_ID":"2021-036F","FILE":"3270709","PERIAPSIS":"546.271","EPOCH":"2022-01-12T11:46:03.942624","MEAN_MOTION_DDOT":"0.0000000000000","MEAN_ANOMALY":"285.3773","LAUNCH_DATE":"2021-04-29","SITE":"AFETR","MEAN_ELEMENT_THEORY":"SGP4","BSTAR":"0.00017564000000","TLE_LINE2":"2 48281  53.0556  47.5874 0001398  74.7370 285.3773 15.06391593 39709","SEMIMAJOR_AXIS":"6925.374","TIME_SYSTEM":"UTC","ARG_OF_PERICENTER":"74.7370","CENTER_NAME":"EARTH","DECAY_DATE":null,"TLE_LINE1":"1 48281U 21036F   22012.49032341  .00002335  00000-0  17564-3 0  9997","CLASSIFICATION_TYPE":"U","RCS_SIZE":"LARGE","ELEMENT_SET_NO":"999","COUNTRY_CODE":"US","RA_OF_ASC_NODE":"47.5874","APOAPSIS":"548.207","GP_ID":"193735010","ECCENTRICITY":"0.00013980","OBJECT_TYPE":"PAYLOAD","NORAD_CAT_ID":"48281","EPHEMERIS_TYPE":"0","OBJECT_NAME":"STARLINK-2520","INCLINATION":"53.0556","MEAN_MOTION_DOT":"0.00002335"},{"FILE":"3270709","OBJECT_ID":"2021-036G","EPOCH":"2022-01-12T12:19:54.025536","PERIAPSIS":"546.213","REV_AT_EPOCH":"3964","PERIOD":"95.592","REF_FRAME":"TEME","MEAN_MOTION":"15.06399138","LAUNCH_DATE":"2021-04-29","BSTAR":"-0.00006057300000","MEAN_ELEMENT_THEORY":"SGP4","SITE":"AFETR","MEAN_MOTION_DDOT":"0.0000000000000","MEAN_ANOMALY":"290.2575","CENTER_NAME":"EARTH","ARG_OF_PERICENTER":"69.8570","DECAY_DATE":null,"TLE_LINE1":"1 48282U 21036G   22012.51381974 -.00001184  00000-0 -60573-4 0  9992","TLE_LINE2":"2 48282  53.0572  52.4949 0001448  69.8570 290.2575 15.06399138 39640","SEMIMAJOR_AXIS":"6925.351","TIME_SYSTEM":"UTC","RA_OF_ASC_NODE":"52.4949","COUNTRY_CODE":"US","INCLINATION":"53.0572","MEAN_MOTION_DOT":"-0.00001184","OBJECT_TYPE":"PAYLOAD","EPHEMERIS_TYPE":"0","OBJECT_NAME":"STARLINK-2558","NORAD_CAT_ID":"48282","ECCENTRICITY":"0.00014480","GP_ID":"193733257","APOAPSIS":"548.219","RCS_SIZE":"LARGE","CLASSIFICATION_TYPE":"U","ELEMENT_SET_NO":"999"},{"COUNTRY_CODE":"US","RA_OF_ASC_NODE":"52.5091","APOAPSIS":"548.232","ECCENTRICITY":"0.00014700","GP_ID":"193733509","OBJECT_NAME":"STARLINK-2516","OBJECT_TYPE":"PAYLOAD","NORAD_CAT_ID":"48283","EPHEMERIS_TYPE":"0","MEAN_MOTION_DOT":"0.00000433","INCLINATION":"53.0578","CLASSIFICATION_TYPE":"U","RCS_SIZE":"LARGE","ELEMENT_SET_NO":"999","ARG_OF_PERICENTER":"64.0313","CENTER_NAME":"EARTH","DECAY_DATE":null,"TLE_LINE1":"1 48283U 21036H   22012.51013007  .00000433  00000-0  47973-4 0  9995","TLE_LINE2":"2 48283  53.0578  52.5091 0001470  64.0313 296.0827 15.06399798 39649","SEMIMAJOR_AXIS":"6925.349","TIME_SYSTEM":"UTC","LAUNCH_DATE":"2021-04-29","SITE":"AFETR","MEAN_ELEMENT_THEORY":"SGP4","BSTAR":"0.00004797300000","MEAN_MOTION_DDOT":"0.0000000000000","MEAN_ANOMALY":"296.0827","OBJECT_ID":"2021-036H","FILE":"3270709","PERIAPSIS":"546.196","EPOCH":"2022-01-12T12:14:35.238048","REV_AT_EPOCH":"3964","MEAN_MOTION":"15.06399798","REF_FRAME":"TEME","PERIOD":"95.592"}];
